{"type": "FeatureCollection", "features": [ {"type": "Feature", "properties": {"norad_id": 38068, "name": "COSMOS 2251 DEB", "group": "cosmos-2251-debris", "lat": -22.1538167951747, "lon": -42.298130990318825, "alt_km": 773.3867858119165, "timestamp": "2025-12-03T22:42:33.030530+00:00", "meta": {"OBJECT_NAME": "COSMOS 2251 DEB", "OBJECT_ID": "1993-036BSA", "EPOCH": "2025-11-26T00:12:22.263264", "MEAN_MOTION": 14.35960004, "ECCENTRICITY": 0.00240903, "INCLINATION": 74.0219, "RA_OF_ASC_NODE": 338.9788, "ARG_OF_PERICENTER": 72.1007, "MEAN_ANOMALY": 288.2769, "EPHEMERIS_TYPE": 0, "CLASSIFICATION_TYPE": "U", "NORAD_CAT_ID": 38068, "ELEMENT_SET_NO": 999, "REV_AT_EPOCH": 66406, "BSTAR": 0.00028750999, "MEAN_MOTION_DOT": 8.11e-06, "MEAN_MOTION_DDOT": 0}, "tle": {"line1": "1 38068U 93036BSA 25330.00859101  .00000811  00000+0  28751-3 0  9998", "line2": "2 38068  74.0219 338.9788 0024090  72.1007 288.2769 14.35960004664064"}}, "geometry": {"type": "Point", "coordinates": [-42.298130990318825, -22.1538167951747]}}, {"type": "Feature", "properties": {"norad_id": 38197, "name": "COSMOS 2251 DEB", "group": "cosmos-2251-debris", "lat": -33.45558736947698, "lon": -154.71985772750537, "alt_km": 586.1966579370082, "timestamp": "2025-12-03T22:42:33.030539+00:00", "meta": {"OBJECT_NAME": "COSMOS 2251 DEB", "OBJECT_ID": "1993-036BSM", "EPOCH": "2025-12-03T10:19:00.710112", "MEAN_MOTION": 14.73077907, "ECCENTRICITY": 0.0128638, "INCLINATION": 73.9396, "RA_OF_ASC_NODE": 15.3185, "ARG_OF_PERICENTER": 255.0006, "MEAN_ANOMALY": 103.6899, "EPHEMERIS_TYPE": 0, "CLASSIFICATION_TYPE": "U", "NORAD_CAT_ID": 38197, "ELEMENT_SET_NO": 999, "REV_AT_EPOCH": 85618, "BSTAR": 0.0059537, "MEAN_MOTION_DOT": 0.00043936, "MEAN_MOTION_DDOT": 0}, "tle": {"line1": "1 38197U 93036BSM 25337.42986933  .00043936  00000+0  59537-2 0  9998", "line2": "2 38197  73.9396  15.3185 0128638 255.0006 103.6899 14.73077907856185"}}, "geometry": {"type": "Point", "coordinates": [-154.71985772750537, -33.45558736947698]}}, {"type": "Feature", "properties": {"norad_id": 38199, "name": "COSMOS 2251 DEB", "group": "cosmos-2251-debris", "lat": -25.199641402996416, "lon": -95.58200180191261, "alt_km": 1276.710163515575, "timestamp": "2025-12-03T22:42:33.030548+00:00", "meta": {"OBJECT_NAME": "COSMOS 2251 DEB", "OBJECT_ID": "1993-036BSP", "EPOCH": "2025-12-02T22:49:38.265312", "MEAN_MOTION": 13.64776302, "ECCENTRICITY": 0.0369281, "INCLINATION": 73.9555, "RA_OF_ASC_NODE": 78.27, "ARG_OF_PERICENTER": 6.7365, "MEAN_ANOMALY": 353.8516, "EPHEMERIS_TYPE": 0, "CLASSIFICATION_TYPE": "U", "NORAD_CAT_ID": 38199, "ELEMENT_SET_NO": 999, "REV_AT_EPOCH": 60888, "BSTAR": 0.00050371232, "MEAN_MOTION_DOT": 6.24e-06, "MEAN_MOTION_DDOT": 0}, "tle": {"line1": "1 38199U 93036BSP 25336.95113733  .00000624  00000+0  50371-3 0  9992", "line2": "2 38199  73.9555  78.2700 0369281   6.7365 353.8516 13.64776302608886"}}, "geometry": {"type": "Point", "coordinates": [-95.58200180191261, -25.199641402996416]}}, {"type": "Feature", "properties": {"norad_id": 38208, "name": "COSMOS 2251 DEB", "group": "cosmos-2251-debris", "lat": -28.256289984936917, "lon": -74.7695028185586, "alt_km": 622.1043890731244, "timestamp": "2025-12-03T22:42:33.030557+00:00", "meta": {"OBJECT_NAME": "COSMOS 2251 DEB", "OBJECT_ID": "1993-036BSY", "EPOCH": "2025-12-02T15:06:31.372992", "MEAN_MOTION": 14.83188605, "ECCENTRICITY": 0.00039653, "INCLINATION": 74.0061, "RA_OF_ASC_NODE": 98.9729, "ARG_OF_PERICENTER": 183.0621, "MEAN_ANOMALY": 198.654, "EPHEMERIS_TYPE": 0, "CLASSIFICATION_TYPE": "U", "NORAD_CAT_ID": 38208, "ELEMENT_SET_NO": 999, "REV_AT_EPOCH": 71009, "BSTAR": 0.003692922, "MEAN_MOTION_DOT": 0.0003026, "MEAN_MOTION_DDOT": 0}, "tle": {"line1": "1 38208U 93036BSY 25336.62952978  .00030260  00000+0  36929-2 0  9990", "line2": "2 38208  74.0061  98.9729 0003965 183.0621 198.6540 14.83188605710093"}}, "geometry": {"type": "Point", "coordinates": [-74.7695028185586, -28.256289984936917]}}, {"type": "Feature", "properties": {"norad_id": 38212, "name": "COSMOS 2251 DEB", "group": "cosmos-2251-debris", "lat": -10.941065402079511, "lon": 90.67567720915535, "alt_km": 706.263367345261, "timestamp": "2025-12-03T22:42:33.030565+00:00", "meta": {"OBJECT_NAME": "COSMOS 2251 DEB", "OBJECT_ID": "1993-036BTC", "EPOCH": "2025-11-30T02:08:11.826528", "MEAN_MOTION": 14.77531577, "ECCENTRICITY": 0.00935039, "INCLINATION": 74.0506, "RA_OF_ASC_NODE": 101.4043, "ARG_OF_PERICENTER": 172.1987, "MEAN_ANOMALY": 188.0671, "EPHEMERIS_TYPE": 0, "CLASSIFICATION_TYPE": "U", "NORAD_CAT_ID": 38212, "ELEMENT_SET_NO": 999, "REV_AT_EPOCH": 81123, "BSTAR": 0.000758158, "MEAN_MOTION_DOT": 5.788e-05, "MEAN_MOTION_DDOT": 0}, "tle": {"line1": "1 38212U 93036BTC 25334.08902577  .00005788  00000+0  75816-3 0  9999", "line2": "2 38212  74.0506 101.4043 0093503 172.1987 188.0671 14.77531577811231"}}, "geometry": {"type": "Point", "coordinates": [90.67567720915535, -10.941065402079511]}}, {"type": "Feature", "properties": {"norad_id": 38220, "name": "COSMOS 2251 DEB", "group": "cosmos-2251-debris", "lat": 26.447479372624834, "lon": 94.1798932991331, "alt_km": 589.5678146743558, "timestamp": "2025-12-03T22:42:33.030575+00:00", "meta": {"OBJECT_NAME": "COSMOS 2251 DEB", "OBJECT_ID": "1993-036BTL", "EPOCH": "2025-12-02T14:23:55.852800", "MEAN_MOTION": 14.91852197, "ECCENTRICITY": 0.0003685, "INCLINATION": 74.0146, "RA_OF_ASC_NODE": 88.6858, "ARG_OF_PERICENTER": 99.6245, "MEAN_ANOMALY": 260.5354, "EPHEMERIS_TYPE": 0, "CLASSIFICATION_TYPE": "U", "NORAD_CAT_ID": 38220, "ELEMENT_SET_NO": 999, "REV_AT_EPOCH": 71219, "BSTAR": 0.0045511067, "MEAN_MOTION_DOT": 0.00046254, "MEAN_MOTION_DDOT": 0}, "tle": {"line1": "1 38220U 93036BTL 25336.59995200  .00046254  00000+0  45511-2 0  9992", "line2": "2 38220  74.0146  88.6858 0003685  99.6245 260.5354 14.91852197712191"}}, "geometry": {"type": "Point", "coordinates": [94.1798932991331, 26.447479372624834]}}, {"type": "Feature", "properties": {"norad_id": 38479, "name": "COSMOS 2251 DEB", "group": "cosmos-2251-debris", "lat": 68.35625232726777, "lon": -113.19504216210025, "alt_km": 791.9664780473286, "timestamp": "2025-12-03T22:42:33.030584+00:00", "meta": {"OBJECT_NAME": "COSMOS 2251 DEB", "OBJECT_ID": "1993-036BTP", "EPOCH": "2025-11-15T12:46:06.719808", "MEAN_MOTION": 14.37875238, "ECCENTRICITY": 0.00846922, "INCLINATION": 74.0077, "RA_OF_ASC_NODE": 234.4912, "ARG_OF_PERICENTER": 348.2771, "MEAN_ANOMALY": 195.3627, "EPHEMERIS_TYPE": 0, "CLASSIFICATION_TYPE": "U", "NORAD_CAT_ID": 38479, "ELEMENT_SET_NO": 999, "REV_AT_EPOCH": 64296, "BSTAR": 0.00281077, "MEAN_MOTION_DOT": 8.824e-05, "MEAN_MOTION_DDOT": 0}, "tle": {"line1": "1 38479U 93036BTP 25319.53202222  .00008824  00000+0  28108-2 0  9992", "line2": "2 38479  74.0077 234.4912 0084692 348.2771 195.3627 14.37875238642962"}}, "geometry": {"type": "Point", "coordinates": [-113.19504216210025, 68.35625232726777]}}, {"type": "Feature", "properties": {"norad_id": 38481, "name": "COSMOS 2251 DEB", "group": "cosmos-2251-debris", "lat": -73.86174449226945, "lon": -72.38922216568223, "alt_km": 821.243371061897, "timestamp": "2025-12-03T22:42:33.030593+00:00", "meta": {"OBJECT_NAME": "COSMOS 2251 DEB", "OBJECT_ID": "1993-036BTR", "EPOCH": "2025-11-30T21:06:34.190496", "MEAN_MOTION": 13.94733975, "ECCENTRICITY": 0.02337783, "INCLINATION": 73.9329, "RA_OF_ASC_NODE": 28.0528, "ARG_OF_PERICENTER": 330.587, "MEAN_ANOMALY": 28.2266, "EPHEMERIS_TYPE": 0, "CLASSIFICATION_TYPE": "U", "NORAD_CAT_ID": 38481, "ELEMENT_SET_NO": 999, "REV_AT_EPOCH": 58895, "BSTAR": 0.0013592661, "MEAN_MOTION_DOT": 2.261e-05, "MEAN_MOTION_DDOT": 0}, "tle": {"line1": "1 38481U 93036BTR 25334.87956239  .00002261  00000+0  13593-2 0  9994", "line2": "2 38481  73.9329  28.0528 0233778 330.5870  28.2266 13.94733975588952"}}, "geometry": {"type": "Point", "coordinates": [-72.38922216568223, -73.86174449226945]}}, {"type": "Feature", "properties": {"norad_id": 38483, "name": "COSMOS 2251 DEB", "group": "cosmos-2251-debris", "lat": 17.20629758849283, "lon": 32.49748887079338, "alt_km": 832.813960958807, "timestamp": "2025-12-03T22:42:33.030602+00:00", "meta": {"OBJECT_NAME": "COSMOS 2251 DEB", "OBJECT_ID": "1993-036BTT", "EPOCH": "2025-11-30T10:35:51.419040", "MEAN_MOTION": 14.2869489, "ECCENTRICITY": 0.01113545, "INCLINATION": 74.2627, "RA_OF_ASC_NODE": 33.7569, "ARG_OF_PERICENTER": 143.1875, "MEAN_ANOMALY": 217.699, "EPHEMERIS_TYPE": 0, "CLASSIFICATION_TYPE": "U", "NORAD_CAT_ID": 38483, "ELEMENT_SET_NO": 999, "REV_AT_EPOCH": 63302, "BSTAR": 0.00092192588, "MEAN_MOTION_DOT": 2.455e-05, "MEAN_MOTION_DDOT": 0}, "tle": {"line1": "1 38483U 93036BTT 25334.44156735  .00002455  00000+0  92193-3 0  9991", "line2": "2 38483  74.2627  33.7569 0111354 143.1875 217.6990 14.28694890633022"}}, "geometry": {"type": "Point", "coordinates": [32.49748887079338, 17.20629758849283]}}, {"type": "Feature", "properties": {"norad_id": 38486, "name": "COSMOS 2251 DEB", "group": "cosmos-2251-debris", "lat": 37.310561199566195, "lon": -125.23231015269207, "alt_km": 631.3440152054836, "timestamp": "2025-12-03T22:42:33.030611+00:00", "meta": {"OBJECT_NAME": "COSMOS 2251 DEB", "OBJECT_ID": "1993-036BTW", "EPOCH": "2025-12-01T23:18:40.096224", "MEAN_MOTION": 14.72693828, "ECCENTRICITY": 0.00300221, "INCLINATION": 73.9411, "RA_OF_ASC_NODE": 225.9531, "ARG_OF_PERICENTER": 11.225, "MEAN_ANOMALY": 1.4037, "EPHEMERIS_TYPE": 0, "CLASSIFICATION_TYPE": "U", "NORAD_CAT_ID": 38486, "ELEMENT_SET_NO": 999, "REV_AT_EPOCH": 75276, "BSTAR": 0.0031614805, "MEAN_MOTION_DOT": 0.00020338, "MEAN_MOTION_DDOT": 0}, "tle": {"line1": "1 38486U 93036BTW 25335.97129741  .00020338  00000+0  31615-2 0  9991", "line2": "2 38486  73.9411 225.9531 0030022  11.2250   1.4037 14.72693828752763"}}, "geometry": {"type": "Point", "coordinates": [-125.23231015269207, 37.310561199566195]}}]}